     2.10           N: GPS NAV DATA                         RINEX VERSION / TYPE
teqc  2008Oct1      CORS-ADM Account    20081105 17:45:25UTCPGM / RUN BY / DATE
Solaris 5.10|UltraSparc IIIi|cc SC5.8|=+|*Sparc             COMMENT
     2              NAVIGATION DATA                         COMMENT
RINGO/GLOBAL        NATIONAL GEODETIC SURVEY                COMMENT
    1.2107D-08 -7.4506D-09 -1.1921D-07  5.9605D-08          ION ALPHA
    9.6256D+04 -3.2768D+04 -1.9661D+05  1.9661D+05          ION BETA
    9.313225746155D-10 7.105427357601D-15   233472     1504 DELTA-UTC: A0,A1,T,W
    14                                                      LEAP SECONDS
                                                            END OF HEADER
 2 08 11  2  4  0  0.0 1.759938895700D-04-2.614797267600D-12 0.000000000000D+00
    7.100000000000D+01 2.621875000000D+01 4.825558146720D-09 1.295199098950D+00
    1.376494765280D-06 8.779681986200D-03 9.438022971150D-06 5.153575117110D+03
    1.440000000000D+04 1.415610313420D-07-3.053953757730D+00 1.322478055950D-07
    9.428867483890D-01 1.875312500000D+02 2.668991441180D+00-7.968903365380D-09
   -3.782300405140D-10 1.000000000000D+00 1.504000000000D+03 0.000000000000D+00
    2.800000000000D+00 0.000000000000D+00-1.722946763040D-08 7.100000000000D+01
    7.470000000000D+03
 2 08 11  2  5 59 44.0 1.759752631190D-04-2.614797267600D-12 0.000000000000D+00
    5.000000000000D+00 2.640625000000D+01 4.743769025590D-09 2.343077820400D+00
    1.344829797750D-06 8.779566269370D-03 9.380280971530D-06 5.153575639720D+03
    2.158400000000D+04-1.862645149230D-09-3.054010359490D+00 1.303851604460D-07
    9.428837654990D-01 1.852500000000D+02 2.669021586070D+00-7.917472651660D-09
   -4.425184326690D-10 1.000000000000D+00 1.504000000000D+03 0.000000000000D+00
    2.000000000000D+00 0.000000000000D+00-1.722946763040D-08 5.000000000000D+00
    1.950000000000D+04
 2 08 11  2  6  0  0.0 1.759747974580D-04-2.614797267600D-12 0.000000000000D+00
    7.500000000000D+01 2.640625000000D+01 4.743769025590D-09 2.345411894490D+00
    1.344829797750D-06 8.779562544080D-03 9.380280971530D-06 5.153575647350D+03
    2.160000000000D+04-1.862645149230D-09-3.054010495540D+00 1.303851604460D-07
    9.428837420930D-01 1.852500000000D+02 2.669021384190D+00-7.917472651660D-09
   -4.425184326690D-10 1.000000000000D+00 1.504000000000D+03 0.000000000000D+00
    2.800000000000D+00 0.000000000000D+00-1.722946763040D-08 7.500000000000D+01
    1.440000000000D+04
 2 08 11  2  7 59 44.0 1.759566366670D-04-2.614797267600D-12 0.000000000000D+00
    1.900000000000D+01 3.450000000000D+01 4.686266630390D-09-2.889834688190D+00
    1.924112439160D-06 8.780677453620D-03 9.458512067790D-06 5.153573509220D+03
    2.878400000000D+04-1.061707735060D-07-3.054067515700D+00 5.215406417850D-08
    9.428811688200D-01 1.839062500000D+02 2.668991903460D+00-7.834612057330D-09
   -3.696582548930D-10 1.000000000000D+00 1.504000000000D+03 0.000000000000D+00
    2.000000000000D+00 0.000000000000D+00-1.722946763040D-08 1.900000000000D+01
    2.205000000000D+04
 2 08 11  2 10  0  0.0 1.759375445540D-04-2.614797267600D-12 0.000000000000D+00
    2.000000000000D+01 3.740625000000D+01 4.693766942810D-09-1.837203996270D+00
    1.957640051840D-06 8.780210744590D-03 9.473413228990D-06 5.153574741360D+03
    3.600000000000D+04-1.564621925350D-07-3.054124875260D+00-1.136213541030D-07
    9.428780308600D-01 1.878437500000D+02 2.668938265570D+00-7.981046728350D-09
   -3.175132257000D-10 1.000000000000D+00 1.504000000000D+03 0.000000000000D+00
    2.000000000000D+00 0.000000000000D+00-1.722946763040D-08 2.000000000000D+01
    2.919000000000D+04
 2 08 11  2 12  0  0.0 1.759189181030D-04-2.614797267600D-12 0.000000000000D+00
    2.100000000000D+01 3.350000000000D+01 4.805914471340D-09-7.871087257120D-01
    1.791864633560D-06 8.779851719740D-03 9.223818778990D-06 5.153572181700D+03
    4.320000000000D+04-4.656612873080D-08-3.054182580060D+00-1.955777406690D-07
    9.428758511120D-01 1.966562500000D+02 2.669086813200D+00-8.021405552310D-09
   -3.203704875740D-10 1.000000000000D+00 1.504000000000D+03 0.000000000000D+00
    2.000000000000D+00 0.000000000000D+00-1.722946763040D-08 2.100000000000D+01
    3.600000000000D+04
 2 08 11  2 14  0  0.0 1.758998259900D-04-2.614797267600D-12 0.000000000000D+00
    5.700000000000D+01 2.390625000000D+01 4.911276002930D-09 2.631587917460D-01
    1.076608896250D-06 8.781211450700D-03 9.039416909220D-06 5.153574771880D+03
    5.040000000000D+04 1.378357410430D-07-3.054240085910D+00-5.401670932770D-08
    9.428724776230D-01 2.000000000000D+02 2.669063659590D+00-8.175697693480D-09
   -4.532331646950D-10 1.000000000000D+00 1.504000000000D+03 0.000000000000D+00
    2.000000000000D+00 0.000000000000D+00-1.722946763040D-08 5.700000000000D+01
    4.320000000000D+04
 2 08 11  2 16  0  0.0 1.758811995390D-04-2.614797267600D-12 0.000000000000D+00
    5.800000000000D+01 2.090625000000D+01 4.938062832990D-09 1.313452062410D+00
    1.106411218640D-06 8.780856034720D-03 8.901581168170D-06 5.153573724750D+03
    5.760000000000D+04 1.490116119380D-07-3.054298229590D+00 1.043081283570D-07
    9.428695634900D-01 1.972187500000D+02 2.669014812760D+00-8.051406801980D-09
   -5.064496670900D-10 0.000000000000D+00 1.504000000000D+03 0.000000000000D+00
    2.000000000000D+00 0.000000000000D+00-1.722946763040D-08 5.800000000000D+01
    5.040000000000D+04
 2 08 11  2 18  0  0.0 1.758621074260D-04-2.614797267600D-12 0.000000000000D+00
    5.900000000000D+01 2.100000000000D+01 4.919847788550D-09 2.363680746710D+00
    1.152977347370D-06 8.780789445150D-03 8.974224329000D-06 5.153574010850D+03
    6.480000000000D+04 4.656612873080D-08-3.054356064590D+00 1.806765794750D-07
    9.428658447530D-01 1.959687500000D+02 2.669031064310D+00-8.017833974970D-09
   -4.935919886590D-10 1.000000000000D+00 1.504000000000D+03 0.000000000000D+00
    2.000000000000D+00 0.000000000000D+00-1.722946763040D-08 5.900000000000D+01
    5.760000000000D+04
 2 08 11  2 20  0  0.0 1.758434809740D-04-2.614797267600D-12 0.000000000000D+00
    6.900000000000D+01 2.753125000000D+01 4.863416866550D-09-2.869234620420D+00
    1.521781086920D-06 8.781685493890D-03 9.039416909220D-06 5.153572288510D+03
    7.200000000000D+04-1.117587089540D-07-3.054413999070D+00 6.146728992460D-08
    9.428631924820D-01 1.950000000000D+02 2.669006560440D+00-7.892828768000D-09
   -3.843017219950D-10 1.000000000000D+00 1.504000000000D+03 0.000000000000D+00
    2.000000000000D+00 0.000000000000D+00-1.722946763040D-08 6.900000000000D+01
    6.837000000000D+04
 2 08 11  2 22  0  0.0 1.758248545230D-04-2.614797267600D-12 0.000000000000D+00
    7.200000000000D+01 2.962500000000D+01 4.918776315350D-09-1.818952684440D+00
    1.544132828710D-06 8.781386190090D-03 9.039416909220D-06 5.153573106770D+03
    7.920000000000D+04-1.601874828340D-07-3.054471848700D+00-1.452863216400D-07
    9.428598745840D-01 1.974375000000D+02 2.668970190830D+00-8.069979004160D-09
   -3.164417524980D-10 1.000000000000D+00 1.504000000000D+03 0.000000000000D+00
    2.000000000000D+00 0.000000000000D+00-1.722946763040D-08 7.200000000000D+01
    7.287000000000D+04
 2 08 11  3  0  0  0.0 1.758057624100D-04-2.614797267600D-12 0.000000000000D+00
    7.600000000000D+01 2.762500000000D+01 4.966278294000D-09-7.687792647990D-01
    1.423060894010D-06 8.781216572970D-03 8.817762136460D-06 5.153571861270D+03
    8.640000000000D+04-9.313225746160D-09-3.054530650700D+00-1.359730958940D-07
    9.428579084220D-01 2.017187500000D+02 2.669042890540D+00-8.123195506560D-09
   -2.417957860510D-10 1.000000000000D+00 1.504000000000D+03 0.000000000000D+00
    2.000000000000D+00 0.000000000000D+00-1.722946763040D-08 7.600000000000D+01
    8.007000000000D+04
 3 08 11  2  0  0  0.0 3.052917309100D-04 5.343281372920D-12 0.000000000000D+00
    4.200000000000D+01-8.156250000000D+00 5.630591679600D-09-1.103417470060D+00
   -2.551823854450D-07 1.141319866290D-02 5.314126610760D-06 5.153700725550D+03
    0.000000000000D+00 2.160668373110D-07 2.084199455270D+00 1.490116119380D-07
    9.257857173430D-01 2.554062500000D+02 8.707842970780D-01-8.510711648160D-09
    2.250093725440D-11 0.000000000000D+00 1.504000000000D+03 0.000000000000D+00
    2.000000000000D+00 0.000000000000D+00-4.190951585770D-09 4.200000000000D+01
   -3.000000000000D+01
 3 08 11  2  1 59 44.0 3.053289838140D-04 5.343281372920D-12 0.000000000000D+00
    5.000000000000D+01-8.125000000000D+00 5.663093033410D-09-5.559325401360D-02
   -3.315508365630D-07 1.141306373760D-02 5.602836608890D-06 5.153700315480D+03
    7.184000000000D+03 1.862645149230D-08 2.084137606020D+00 1.750886440280D-07
    9.257852813930D-01 2.537187500000D+02 8.707992115280D-01-8.642502852080D-09
    1.285767843110D-11 1.000000000000D+00 1.504000000000D+03 0.000000000000D+00
    2.000000000000D+00 0.000000000000D+00-4.190951585770D-09 5.000000000000D+01
    3.180000000000D+03
 3 08 11  2  2  0  0.0 3.053303807970D-04 5.343281372920D-12 0.000000000000D+00
    5.100000000000D+01-8.125000000000D+00 5.663093033410D-09-5.325932475040D-02
   -3.315508365630D-07 1.141305838250D-02 5.602836608890D-06 5.153700323110D+03
    7.200000000000D+03 1.862645149230D-08 2.084137455340D+00 1.750886440280D-07
    9.257852945590D-01 2.537187500000D+02 8.707989745360D-01-8.642502852080D-09
    1.285767843110D-11 0.000000000000D+00 1.504000000000D+03 0.000000000000D+00
    2.000000000000D+00 0.000000000000D+00-4.190951585770D-09 5.100000000000D+01
    0.000000000000D+00
